{
"type": "FeatureCollection",
"crs": { "type": "name", "properties": { "name": "urn:ogc:def:crs:OGC:1.3:CRS84" } },
                                                                                
"features": [
{ "type": "Feature", "properties": { "ele": 753.312988, "name": "160", "cmt": "27-OCT-13 2:51:38AM", "name_en": "Herods' Gate", "name_ar": "باب الساهرة ", "link_ar": "http:\/\/www.holiestcity.com\/Arabic\/VTeng1ArabicInfoTSah.html", "link_en": null, "image2": "http:\/\/www.konbini.com\/fr\/files\/2013\/03\/thumb-fiction.jpg", "image1": "http:\/\/upload.wikimedia.org\/wikipedia\/commons\/2\/27\/Salvador_Dali_NYWTS.jpg" }, "geometry": { "type": "Point", "coordinates": [ 35.233542882, 31.78331743 ] } },
{ "type": "Feature", "properties": { "ele": 751.630615, "name": "161", "cmt": "27-OCT-13 2:53:29AM", "name_en": "Tariq Bab Hutta ", "name_ar": "طريق باب حطة ", "link_ar": null, "link_en": null, "image2": "http:\/\/www.konbini.com\/fr\/files\/2013\/03\/thumb-fiction.jpg", "image1": "http:\/\/upload.wikimedia.org\/wikipedia\/commons\/2\/27\/Salvador_Dali_NYWTS.jpg" }, "geometry": { "type": "Point", "coordinates": [ 35.23433866, 31.782606561 ] } },
{ "type": "Feature", "properties": { "ele": 745.14185, "name": "162", "cmt": "27-OCT-13 2:56:47AM", "name_en": "Tariq Al Malek Al Muaththam 'Issa", "name_ar": "طريق الملك المعظم عيسى", "link_ar": null, "link_en": null, "image2": "http:\/\/www.konbini.com\/fr\/files\/2013\/03\/thumb-fiction.jpg", "image1": "http:\/\/upload.wikimedia.org\/wikipedia\/commons\/2\/27\/Salvador_Dali_NYWTS.jpg" }, "geometry": { "type": "Point", "coordinates": [ 35.2352429, 31.782950889 ] } },
{ "type": "Feature", "properties": { "ele": 754.27441, "name": "163", "cmt": "27-OCT-13 2:59:36AM", "name_en": "Burj Al-Luqluq Social Center Society", "name_ar": "جمعية مركز برج اللقلق المجتمعية", "link_ar": "http:\/\/www.burjalluqluq.org\/home\/ar\/content\/%D9%85%D9%86-%D9%86%D8%AD%D9%86", "link_en": "http:\/\/www.burjalluqluq.org\/home\/en\/content\/about-us-0", "image2": "http:\/\/www.konbini.com\/fr\/files\/2013\/03\/thumb-fiction.jpg", "image1": "http:\/\/upload.wikimedia.org\/wikipedia\/commons\/2\/27\/Salvador_Dali_NYWTS.jpg" }, "geometry": { "type": "Point", "coordinates": [ 35.235722763, 31.78326848 ] } },
{ "type": "Feature", "properties": { "ele": 755.716309, "name": "164", "cmt": "27-OCT-13 3:15:17AM", "name_en": "The Indian Corner", "name_ar": "الزاوية الهندية", "link_ar": "http:\/\/arabnyheter.info\/ar\/archives\/10063", "link_en": null, "image2": "http:\/\/www.konbini.com\/fr\/files\/2013\/03\/thumb-fiction.jpg", "image1": "http:\/\/upload.wikimedia.org\/wikipedia\/commons\/2\/27\/Salvador_Dali_NYWTS.jpg" }, "geometry": { "type": "Point", "coordinates": [ 35.233608931, 31.782929935 ] } },
{ "type": "Feature", "properties": { "ele": 755.956543, "name": "165", "cmt": "27-OCT-13 3:17:36AM", "name_en": "Tariq Zawiyat el Hunud", "name_ar": "طريق زاوية الهنود", "link_ar": null, "link_en": null, "image2": "http:\/\/www.konbini.com\/fr\/files\/2013\/03\/thumb-fiction.jpg", "image1": "http:\/\/upload.wikimedia.org\/wikipedia\/commons\/2\/27\/Salvador_Dali_NYWTS.jpg" }, "geometry": { "type": "Point", "coordinates": [ 35.233551096, 31.782907136 ] } },
{ "type": "Feature", "properties": { "ele": 762.445557, "name": "166", "cmt": "27-OCT-13 3:20:19AM", "name_en": "Tariq es Sa'dieh", "name_ar": "طريق السعدية", "link_ar": null, "link_en": null, "image2": "http:\/\/www.konbini.com\/fr\/files\/2013\/03\/thumb-fiction.jpg", "image1": "http:\/\/upload.wikimedia.org\/wikipedia\/commons\/2\/27\/Salvador_Dali_NYWTS.jpg" }, "geometry": { "type": "Point", "coordinates": [ 35.233107777, 31.782312104 ] } },
{ "type": "Feature", "properties": { "ele": 762.445557, "name": "167", "cmt": "27-OCT-13 3:22:34AM", "name_en": "Abna El Quds Community Center ", "name_ar": "نادي أبناء القدس ", "link_ar": null, "link_en": null, "image2": "http:\/\/www.konbini.com\/fr\/files\/2013\/03\/thumb-fiction.jpg", "image1": "http:\/\/upload.wikimedia.org\/wikipedia\/commons\/2\/27\/Salvador_Dali_NYWTS.jpg" }, "geometry": { "type": "Point", "coordinates": [ 35.232913736, 31.782306992 ] } },
{ "type": "Feature", "properties": { "ele": 757.879395, "name": "168", "cmt": "27-OCT-13 3:31:05AM", "name_en": "The dry cleaner: \"Abood Al Hindi\"", "name_ar": "المكوجي السيد عبود الهندي", "link_ar": null, "link_en": null, "image2": "http:\/\/www.konbini.com\/fr\/files\/2013\/03\/thumb-fiction.jpg", "image1": "http:\/\/upload.wikimedia.org\/wikipedia\/commons\/2\/27\/Salvador_Dali_NYWTS.jpg" }, "geometry": { "type": "Point", "coordinates": [ 35.233165361, 31.781501994 ] } },
{ "type": "Feature", "properties": { "ele": 763.887451, "name": "169", "cmt": "27-OCT-13 3:34:02AM", "name_en": "Tariq el ma'thana el Hamra", "name_ar": "طريق المأذنة الحمراء", "link_ar": null, "link_en": null, "image2": "http:\/\/www.konbini.com\/fr\/files\/2013\/03\/thumb-fiction.jpg", "image1": "http:\/\/upload.wikimedia.org\/wikipedia\/commons\/2\/27\/Salvador_Dali_NYWTS.jpg" }, "geometry": { "type": "Point", "coordinates": [ 35.233113058, 31.782312859 ] } },
{ "type": "Feature", "properties": { "ele": 735.528809, "name": "171", "cmt": "03-NOV-13 6:10:27AM", "name_en": "Old City Youth Association", "name_ar": "جمعية شباب البلد القدسمة", "link_ar": "website under constructions ", "link_en": null, "image2": "http:\/\/www.konbini.com\/fr\/files\/2013\/03\/thumb-fiction.jpg", "image1": "http:\/\/upload.wikimedia.org\/wikipedia\/commons\/2\/27\/Salvador_Dali_NYWTS.jpg" }, "geometry": { "type": "Point", "coordinates": [ 35.23317148, 31.777879503 ] } },
{ "type": "Feature", "properties": { "ele": 742.498291, "name": "172", "cmt": "03-NOV-13 6:27:56AM", "name_en": "Al-Khalidiya Library ", "name_ar": "مكتبة الخالدية", "link_ar": "http:\/\/www.albawaba.com\/ar\/%D9%85%D8%AA%D8%A7%D8%A8%D8%B9%D8%A7%D8%AA-%D8%AB%D9%82%D8%A7%D9%81%D9%8A%D8%A9\/100-%D8%B9%D8%A7%D9%85-%D8%B9%D9%84%D9%89-%D8%AA%D8%A3%D8%B3%D9%8A%D8%B3-%D8%A3%D9%82%D8%AF%D9%85-%D9%85%D9%83%D8%AA%D8%A8%D8%A7%D8%AA-%D9%81%D9%84%D8%B3%D8%B7%D9%8A%D9%86-%D8%A7%D9%84%D9%85%D9%83%D8%AA%D8%A8%D8%A9-%D8%A7%D9%84%D8%AE%D8%A7%D9%84%D8%AF%D9%8A%D8%A9-%D8%A8%D8%A7%D9%84%D9%82%D8%AF%D8%B3", "link_en": "http:\/\/digital-library.alquds-manuscripts.org\/alkhalidiya.html", "image2": "http:\/\/www.konbini.com\/fr\/files\/2013\/03\/thumb-fiction.jpg", "image1": "http:\/\/upload.wikimedia.org\/wikipedia\/commons\/2\/27\/Salvador_Dali_NYWTS.jpg" }, "geometry": { "type": "Point", "coordinates": [ 35.233183885, 31.776948608 ] } },
{ "type": "Feature", "properties": { "ele": 764.608643, "name": "173", "cmt": "03-NOV-13 6:51:28AM", "name_en": "Abu Sneineh Bakery", "name_ar": "كعك ابو سنينة", "link_ar": null, "link_en": null, "image2": "http:\/\/www.konbini.com\/fr\/files\/2013\/03\/thumb-fiction.jpg", "image1": "http:\/\/upload.wikimedia.org\/wikipedia\/commons\/2\/27\/Salvador_Dali_NYWTS.jpg" }, "geometry": { "type": "Point", "coordinates": [ 35.230929572, 31.775015155 ] } },
{ "type": "Feature", "properties": { "ele": 766.53125, "name": "174", "cmt": "03-NOV-13 6:58:56AM", "name_en": "The Cardo", "name_ar": "الكاردو الروماني ", "link_ar": "http:\/\/www.alquds-online.org\/index.php?s=11&ss=8&id=53", "link_en": null, "image2": "http:\/\/www.konbini.com\/fr\/files\/2013\/03\/thumb-fiction.jpg", "image1": "http:\/\/upload.wikimedia.org\/wikipedia\/commons\/2\/27\/Salvador_Dali_NYWTS.jpg" }, "geometry": { "type": "Point", "coordinates": [ 35.23095455, 31.775197797 ] } },
{ "type": "Feature", "properties": { "ele": 779.50879, "name": "175", "cmt": "03-NOV-13 7:02:27AM", "name_en": "Intersection: Armenian and Jewish Quarter", "name_ar": null, "link_ar": null, "link_en": null, "image2": "http:\/\/www.konbini.com\/fr\/files\/2013\/03\/thumb-fiction.jpg", "image1": "http:\/\/upload.wikimedia.org\/wikipedia\/commons\/2\/27\/Salvador_Dali_NYWTS.jpg" }, "geometry": { "type": "Point", "coordinates": [ 35.229847888, 31.775304666 ] } },
{ "type": "Feature", "properties": { "ele": 780.950684, "name": "176", "cmt": "03-NOV-13 7:08:06AM", "name_en": "Bulghourji: Armenian Bar Resturant Lounge & Gardens", "name_ar": null, "link_ar": null, "link_en": null, "image2": "http:\/\/www.konbini.com\/fr\/files\/2013\/03\/thumb-fiction.jpg", "image1": "http:\/\/upload.wikimedia.org\/wikipedia\/commons\/2\/27\/Salvador_Dali_NYWTS.jpg" }, "geometry": { "type": "Point", "coordinates": [ 35.228796462, 31.774976933 ] } },
{ "type": "Feature", "properties": { "ele": 779.028076, "name": "177", "cmt": "03-NOV-13 7:12:33AM", "name_en": "Main Gate:Armenian Convent ", "name_ar": null, "link_ar": null, "link_en": null, "image2": "http:\/\/www.konbini.com\/fr\/files\/2013\/03\/thumb-fiction.jpg", "image1": "http:\/\/upload.wikimedia.org\/wikipedia\/commons\/2\/27\/Salvador_Dali_NYWTS.jpg" }, "geometry": { "type": "Point", "coordinates": [ 35.228662603, 31.774498997 ] } },
{ "type": "Feature", "properties": { "ele": 779.268311, "name": "178", "cmt": "03-NOV-13 7:14:17AM", "name_en": "Seminary", "name_ar": null, "link_ar": null, "link_en": null, "image2": "http:\/\/www.konbini.com\/fr\/files\/2013\/03\/thumb-fiction.jpg", "image1": "http:\/\/upload.wikimedia.org\/wikipedia\/commons\/2\/27\/Salvador_Dali_NYWTS.jpg" }, "geometry": { "type": "Point", "coordinates": [ 35.228685066, 31.774541745 ] } },
{ "type": "Feature", "properties": { "ele": 779.989502, "name": "179", "cmt": "03-NOV-13 7:17:39AM", "name_en": "St. James Church", "name_ar": null, "link_ar": null, "link_en": null, "image2": "http:\/\/www.konbini.com\/fr\/files\/2013\/03\/thumb-fiction.jpg", "image1": "http:\/\/upload.wikimedia.org\/wikipedia\/commons\/2\/27\/Salvador_Dali_NYWTS.jpg" }, "geometry": { "type": "Point", "coordinates": [ 35.228876341, 31.774591198 ] } },
{ "type": "Feature", "properties": { "ele": 783.83472, "name": "180", "cmt": "03-NOV-13 7:19:24AM", "name_en": "Old Dining Room for the Priest", "name_ar": null, "link_ar": null, "link_en": null, "image2": "http:\/\/www.konbini.com\/fr\/files\/2013\/03\/thumb-fiction.jpg", "image1": "http:\/\/upload.wikimedia.org\/wikipedia\/commons\/2\/27\/Salvador_Dali_NYWTS.jpg" }, "geometry": { "type": "Point", "coordinates": [ 35.228891009, 31.774894791 ] } },
{ "type": "Feature", "properties": { "ele": 786.237793, "name": "181", "cmt": "03-NOV-13 7:22:32AM", "name_en": "St.Toros Church", "name_ar": null, "link_ar": null, "link_en": null, "image2": "http:\/\/www.konbini.com\/fr\/files\/2013\/03\/thumb-fiction.jpg", "image1": "http:\/\/upload.wikimedia.org\/wikipedia\/commons\/2\/27\/Salvador_Dali_NYWTS.jpg" }, "geometry": { "type": "Point", "coordinates": [ 35.229229974, 31.774929073 ] } },
{ "type": "Feature", "properties": { "ele": 782.633057, "name": "182", "cmt": "03-NOV-13 7:26:43AM", "name_en": "Armenian club", "name_ar": null, "link_ar": null, "link_en": null, "image2": "http:\/\/www.konbini.com\/fr\/files\/2013\/03\/thumb-fiction.jpg", "image1": "http:\/\/upload.wikimedia.org\/wikipedia\/commons\/2\/27\/Salvador_Dali_NYWTS.jpg" }, "geometry": { "type": "Point", "coordinates": [ 35.229446143, 31.774636712 ] } },
{ "type": "Feature", "properties": { "ele": 779.50879, "name": "183", "cmt": "03-NOV-13 7:27:53AM", "name_en": "Armenian club", "name_ar": null, "link_ar": null, "link_en": null, "image2": "http:\/\/www.konbini.com\/fr\/files\/2013\/03\/thumb-fiction.jpg", "image1": "http:\/\/upload.wikimedia.org\/wikipedia\/commons\/2\/27\/Salvador_Dali_NYWTS.jpg" }, "geometry": { "type": "Point", "coordinates": [ 35.229012463, 31.774235219 ] } },
{ "type": "Feature", "properties": { "ele": 779.989502, "name": "184", "cmt": "03-NOV-13 7:31:52AM", "name_en": "Library", "name_ar": null, "link_ar": null, "link_en": null, "image2": "http:\/\/www.konbini.com\/fr\/files\/2013\/03\/thumb-fiction.jpg", "image1": "http:\/\/upload.wikimedia.org\/wikipedia\/commons\/2\/27\/Salvador_Dali_NYWTS.jpg" }, "geometry": { "type": "Point", "coordinates": [ 35.229132576, 31.773751918 ] } },
{ "type": "Feature", "properties": { "ele": 779.50879, "name": "185", "cmt": "03-NOV-13 7:32:47AM", "name_en": "Musuem ", "name_ar": null, "link_ar": null, "link_en": null, "image2": "http:\/\/www.konbini.com\/fr\/files\/2013\/03\/thumb-fiction.jpg", "image1": "http:\/\/upload.wikimedia.org\/wikipedia\/commons\/2\/27\/Salvador_Dali_NYWTS.jpg" }, "geometry": { "type": "Point", "coordinates": [ 35.229197871, 31.773656532 ] } },
{ "type": "Feature", "properties": { "ele": 777.826416, "name": "186", "cmt": "03-NOV-13 7:33:36AM", "name_en": "St. Tarkmanchatz Armenian School", "name_ar": "http:\/\/www.ststarkmanchatz.org\/", "link_ar": null, "link_en": null, "image2": "http:\/\/www.konbini.com\/fr\/files\/2013\/03\/thumb-fiction.jpg", "image1": "http:\/\/upload.wikimedia.org\/wikipedia\/commons\/2\/27\/Salvador_Dali_NYWTS.jpg" }, "geometry": { "type": "Point", "coordinates": [ 35.229595592, 31.773561733 ] } },
{ "type": "Feature", "properties": { "ele": 775.182861, "name": "187", "cmt": "03-NOV-13 7:35:19AM", "name_en": "The Church of the Archangels", "name_ar": null, "link_ar": null, "link_en": null, "image2": "http:\/\/www.konbini.com\/fr\/files\/2013\/03\/thumb-fiction.jpg", "image1": "http:\/\/upload.wikimedia.org\/wikipedia\/commons\/2\/27\/Salvador_Dali_NYWTS.jpg" }, "geometry": { "type": "Point", "coordinates": [ 35.229899101, 31.773565924 ] } },
{ "type": "Feature", "properties": { "ele": 762.68603, "name": "188", "cmt": "04-NOV-13 5:41:35AM", "name_en": "Aljaaouni Barber ", "name_ar": null, "link_ar": null, "link_en": null, "image2": "http:\/\/www.konbini.com\/fr\/files\/2013\/03\/thumb-fiction.jpg", "image1": "http:\/\/upload.wikimedia.org\/wikipedia\/commons\/2\/27\/Salvador_Dali_NYWTS.jpg" }, "geometry": { "type": "Point", "coordinates": [ 35.233586552, 31.780164745 ] } },
{ "type": "Feature", "properties": { "ele": 761.484375, "name": "189", "cmt": "04-NOV-13 5:45:05AM", "name_en": "The beginning of Alqhawanmeh Street ", "name_ar": null, "link_ar": null, "link_en": null, "image2": "http:\/\/www.konbini.com\/fr\/files\/2013\/03\/thumb-fiction.jpg", "image1": "http:\/\/upload.wikimedia.org\/wikipedia\/commons\/2\/27\/Salvador_Dali_NYWTS.jpg" }, "geometry": { "type": "Point", "coordinates": [ 35.233627791, 31.780276475 ] } },
{ "type": "Feature", "properties": { "ele": 761.484375, "name": "190", "cmt": "04-NOV-13 5:58:14AM", "name_en": "Nakshabandi Corner Mosque", "name_ar": "جامع الزاوية النقبندية", "link_ar": "http:\/\/www.palinfo.com\/site\/pic\/newsdetails.aspx?itemid=138442", "link_en": null, "image2": "http:\/\/www.konbini.com\/fr\/files\/2013\/03\/thumb-fiction.jpg", "image1": "http:\/\/upload.wikimedia.org\/wikipedia\/commons\/2\/27\/Salvador_Dali_NYWTS.jpg" }, "geometry": { "type": "Point", "coordinates": [ 35.233585462, 31.780306399 ] } },
{ "type": "Feature", "properties": { "ele": 754.754883, "name": "191", "cmt": "04-NOV-13 6:18:54AM", "name_en": "Bab al-Silsilah", "name_ar": "باب السلسلة", "link_ar": "http:\/\/btd.palestine-studies.org\/ar\/content\/%D8%A8%D8%A7%D8%A8-%D8%A7%D9%84%D8%B3%D9%84%D8%B3%D9%84%D8%A9", "link_en": "http:\/\/btd.palestine-studies.org\/content\/bab-al-silsilah", "image2": "http:\/\/www.konbini.com\/fr\/files\/2013\/03\/thumb-fiction.jpg", "image1": "http:\/\/upload.wikimedia.org\/wikipedia\/commons\/2\/27\/Salvador_Dali_NYWTS.jpg" }, "geometry": { "type": "Point", "coordinates": [ 35.234091142, 31.777328979 ] } },
{ "type": "Feature", "properties": { "ele": 781.91211, "name": "192", "cmt": "04-NOV-13 6:42:05AM", "name_en": "Challenge-Fitness center ", "name_ar": null, "link_ar": null, "link_en": null, "image2": "http:\/\/www.konbini.com\/fr\/files\/2013\/03\/thumb-fiction.jpg", "image1": "http:\/\/upload.wikimedia.org\/wikipedia\/commons\/2\/27\/Salvador_Dali_NYWTS.jpg" }, "geometry": { "type": "Point", "coordinates": [ 35.229227208, 31.778935958 ] } },
{ "type": "Feature", "properties": { "ele": 780.46997, "name": "193", "cmt": "04-NOV-13 7:11:47AM", "name_en": "The Good Samaritan center ", "name_ar": "مركز السامري الطيب ", "link_ar": null, "link_en": null, "image2": "http:\/\/www.konbini.com\/fr\/files\/2013\/03\/thumb-fiction.jpg", "image1": "http:\/\/upload.wikimedia.org\/wikipedia\/commons\/2\/27\/Salvador_Dali_NYWTS.jpg" }, "geometry": { "type": "Point", "coordinates": [ 35.229860879, 31.779071493 ] } },
{ "type": "Feature", "properties": { "ele": 738.893555, "name": "147", "cmt": "21-OCT-13 4:31:35AM", "name_en": "ALQatanin Gate", "name_ar": "باب القطانين", "link_ar": null, "link_en": null, "image2": "http:\/\/www.konbini.com\/fr\/files\/2013\/03\/thumb-fiction.jpg", "image1": "http:\/\/upload.wikimedia.org\/wikipedia\/commons\/2\/27\/Salvador_Dali_NYWTS.jpg" }, "geometry": { "type": "Point", "coordinates": [ 35.233122446, 31.777829546 ] } },
{ "type": "Feature", "properties": { "ele": 734.32715, "name": "145", "cmt": "21-OCT-13 4:26:06AM", "name_en": "Souq Al-Qattanin", "name_ar": "سوق القطانين", "link_ar": "http:\/\/www.alquds.edu\/ar\/%D8%A7%D9%84%D9%80%D9%82%D8%AF%D8%B3\/15463-%D8%A7%D9%84%D9%81%D9%8A%D8%AF%D9%8A%D9%88-%D8%B3%D9%88%D9%82-%D8%A7%D9%84%D9%82%D8%B7%D8%A7%D9%86%D9%8A%D9%86-%D8%AA%D8%AD%D9%81%D8%A9-%D9%85%D8%B9%D9%85%D8%A7%D8%B1%D9%8A%D8%A9-%D9%85%D9%82%D8%AF%D8%B3%D9%8A%D8%A9.html", "link_en": "http:\/\/thisweekinpalestine.com\/details.php?ed=24&edid=24&id=176", "image2": "http:\/\/www.konbini.com\/fr\/files\/2013\/03\/thumb-fiction.jpg", "image1": "http:\/\/upload.wikimedia.org\/wikipedia\/commons\/2\/27\/Salvador_Dali_NYWTS.jpg" }, "geometry": { "type": "Point", "coordinates": [ 35.233147005, 31.777802138 ] } },
{ "type": "Feature", "properties": { "ele": 734.32715, "name": "143", "cmt": "21-OCT-13 4:24:07AM", "name_en": "Tariq Bab el Jadid", "name_ar": "طريق باب الجديد", "link_ar": null, "link_en": null, "image2": "http:\/\/www.konbini.com\/fr\/files\/2013\/03\/thumb-fiction.jpg", "image1": "http:\/\/upload.wikimedia.org\/wikipedia\/commons\/2\/27\/Salvador_Dali_NYWTS.jpg" }, "geometry": { "type": "Point", "coordinates": [ 35.23314273, 31.77850211 ] } },
{ "type": "Feature", "properties": { "ele": 736.49023, "name": "141", "cmt": "21-OCT-13 4:19:14AM", "name_en": "African community Association ", "name_ar": "الجالية الأفريقية", "link_ar": "http:\/\/www.acs-jer.org", "link_en": "facebook page:https:\/\/www.facebook.com\/africancommunitysociety", "image2": "http:\/\/www.konbini.com\/fr\/files\/2013\/03\/thumb-fiction.jpg", "image1": "http:\/\/upload.wikimedia.org\/wikipedia\/commons\/2\/27\/Salvador_Dali_NYWTS.jpg" }, "geometry": { "type": "Point", "coordinates": [ 35.233585294, 31.779154222 ] } },
{ "type": "Feature", "properties": { "ele": 732.885254, "name": "139", "cmt": "21-OCT-13 4:17:11AM", "name_en": "Intersection", "name_ar": null, "link_ar": null, "link_en": null, "image2": "http:\/\/www.konbini.com\/fr\/files\/2013\/03\/thumb-fiction.jpg", "image1": "http:\/\/upload.wikimedia.org\/wikipedia\/commons\/2\/27\/Salvador_Dali_NYWTS.jpg" }, "geometry": { "type": "Point", "coordinates": [ 35.232699662, 31.779238544 ] } },
{ "type": "Feature", "properties": { "ele": 735.528809, "name": "137", "cmt": "21-OCT-13 4:13:30AM", "name_en": "Arab Blind Organization", "name_ar": "جمعية المكفوفين العربية", "link_ar": "http:\/\/arab-blind.org\/ews\/", "link_en": "The website only in Arabic", "image2": "http:\/\/www.konbini.com\/fr\/files\/2013\/03\/thumb-fiction.jpg", "image1": "http:\/\/upload.wikimedia.org\/wikipedia\/commons\/2\/27\/Salvador_Dali_NYWTS.jpg" }, "geometry": { "type": "Point", "coordinates": [ 35.232124412, 31.779580023 ] } },
{ "type": "Feature", "properties": { "ele": 734.08691, "name": "136", "cmt": "21-OCT-13 4:12:14AM", "name_en": "Via Dolorosa: station5 ", "name_ar": "المحطة الخامسة من طريق الألام ", "link_ar": "http:\/\/www.almasalik.com\/locationPassage.do?locationId=30641&languageId=ar&passageId=12593", "link_en": "http:\/\/www.biblewalks.com\/Sites\/ViaDolorosa.html", "image2": "http:\/\/www.konbini.com\/fr\/files\/2013\/03\/thumb-fiction.jpg", "image1": "http:\/\/upload.wikimedia.org\/wikipedia\/commons\/2\/27\/Salvador_Dali_NYWTS.jpg" }, "geometry": { "type": "Point", "coordinates": [ 35.232399171, 31.779627884 ] } },
{ "type": "Feature", "properties": { "ele": 733.84668, "name": "135", "cmt": "21-OCT-13 4:09:15AM", "name_en": "Abu Shukri Resturant", "name_ar": "مطعم ابو شكري ", "link_ar": "Jerusalem-old city Alwad st.02-6271538\\6289303", "link_en": null, "image2": "http:\/\/www.konbini.com\/fr\/files\/2013\/03\/thumb-fiction.jpg", "image1": "http:\/\/upload.wikimedia.org\/wikipedia\/commons\/2\/27\/Salvador_Dali_NYWTS.jpg" }, "geometry": { "type": "Point", "coordinates": [ 35.232402356, 31.779588154 ] } },
{ "type": "Feature", "properties": { "ele": 734.807861, "name": "134", "cmt": "21-OCT-13 4:07:35AM", "name_en": "The Austrian hospice ", "name_ar": "", "link_ar": "http:\/\/www.austrianhospice.com\/news.htm", "link_en": null, "image2": "http:\/\/www.konbini.com\/fr\/files\/2013\/03\/thumb-fiction.jpg", "image1": "http:\/\/upload.wikimedia.org\/wikipedia\/commons\/2\/27\/Salvador_Dali_NYWTS.jpg" }, "geometry": { "type": "Point", "coordinates": [ 35.231898772, 31.780074975 ] } },
{ "type": "Feature", "properties": { "ele": 721.83008, "name": "133", "cmt": "21-OCT-13 4:06:35AM", "name_en": "Aqabat el Asseileh", "name_ar": "عقبة الأصيلة", "link_ar": null, "link_en": null, "image2": "http:\/\/www.konbini.com\/fr\/files\/2013\/03\/thumb-fiction.jpg", "image1": "http:\/\/upload.wikimedia.org\/wikipedia\/commons\/2\/27\/Salvador_Dali_NYWTS.jpg" }, "geometry": { "type": "Point", "coordinates": [ 35.231401473, 31.780561628 ] } },
{ "type": "Feature", "properties": { "ele": 724.95459, "name": "132", "cmt": "21-OCT-13 4:05:16AM", "name_en": "Youth for Jerusalem Association", "name_ar": "جمعية شباب من أجل القدس للثقافة والفنون", "link_ar": "http:\/\/www.yfja.org\/", "link_en": null, "image2": "http:\/\/www.konbini.com\/fr\/files\/2013\/03\/thumb-fiction.jpg", "image1": "http:\/\/upload.wikimedia.org\/wikipedia\/commons\/2\/27\/Salvador_Dali_NYWTS.jpg" }, "geometry": { "type": "Point", "coordinates": [ 35.23103686, 31.7804561 ] } },
{ "type": "Feature", "properties": { "ele": 711.49609, "name": "131", "cmt": "21-OCT-13 4:02:50AM", "name_en": "intersection: Between Khan A-ziet and Al-Wad street", "name_ar": "تقاطع بين خان الزيت وطريق الواد ", "link_ar": "http:\/\/www.youtube.com\/watch?v=FVzjru7Bt_M", "link_en": null, "image2": "http:\/\/www.konbini.com\/fr\/files\/2013\/03\/thumb-fiction.jpg", "image1": "http:\/\/upload.wikimedia.org\/wikipedia\/commons\/2\/27\/Salvador_Dali_NYWTS.jpg" }, "geometry": { "type": "Point", "coordinates": [ 35.230764449, 31.781175602 ] } },
{ "type": "Feature", "properties": { "ele": 744.18066, "name": "159", "cmt": "21-OCT-13 5:25:03AM", "name_en": "The Community Action Center", "name_ar": "مركز العمل المجتمعي ", "link_ar": "Website under constructions ", "link_en": null, "image2": "http:\/\/www.konbini.com\/fr\/files\/2013\/03\/thumb-fiction.jpg", "image1": "http:\/\/upload.wikimedia.org\/wikipedia\/commons\/2\/27\/Salvador_Dali_NYWTS.jpg" }, "geometry": { "type": "Point", "coordinates": [ 35.233127223, 31.777816555 ] } },
{ "type": "Feature", "properties": { "ele": 749.708008, "name": "154", "cmt": "21-OCT-13 4:50:54AM", "name_en": "Hosh Al-Shai", "name_ar": "حوش الشاي ", "link_ar": null, "link_en": null, "image2": "http:\/\/www.konbini.com\/fr\/files\/2013\/03\/thumb-fiction.jpg", "image1": "http:\/\/upload.wikimedia.org\/wikipedia\/commons\/2\/27\/Salvador_Dali_NYWTS.jpg" }, "geometry": { "type": "Point", "coordinates": [ 35.232764371, 31.776999403 ] } },
{ "type": "Feature", "properties": { "ele": 745.382324, "name": "151", "cmt": "21-OCT-13 4:41:00AM", "name_en": "Beginning of the Morrocan neighborhood", "name_ar": "بداية حارة المغاربة", "link_ar": null, "link_en": null, "image2": "http:\/\/www.konbini.com\/fr\/files\/2013\/03\/thumb-fiction.jpg", "image1": "http:\/\/upload.wikimedia.org\/wikipedia\/commons\/2\/27\/Salvador_Dali_NYWTS.jpg" }, "geometry": { "type": "Point", "coordinates": [ 35.233069304, 31.776970821 ] } },
{ "type": "Feature", "properties": { "ele": 735.04834, "name": "149", "cmt": "21-OCT-13 4:35:37AM", "name_en": "Aqbat Al Khalidiya", "name_ar": "عقبة الخالدية", "link_ar": null, "link_en": null, "image2": "http:\/\/www.konbini.com\/fr\/files\/2013\/03\/thumb-fiction.jpg", "image1": "http:\/\/upload.wikimedia.org\/wikipedia\/commons\/2\/27\/Salvador_Dali_NYWTS.jpg" }, "geometry": { "type": "Point", "coordinates": [ 35.233193859, 31.77789283 ] } },
{ "type": "Feature", "properties": { "ele": null, "name": "", "cmt": null, "name_en": "Bab AlMajlis", "name_ar": null, "link_ar": null, "link_en": null, "image2": "http:\/\/www.konbini.com\/fr\/files\/2013\/03\/thumb-fiction.jpg", "image1": "http:\/\/upload.wikimedia.org\/wikipedia\/commons\/2\/27\/Salvador_Dali_NYWTS.jpg" }, "geometry": { "type": "Point", "coordinates": [ 35.233991330135574, 31.779180576956815 ] } }
]
}
